{"type":"FeatureCollection","features":[{"type":"Feature","geometry":{"type":"LineString","coordinates":[[150.984568,-33.920117],[150.995865,-33.926446]]},"properties":{"id":"WSI"}},{"type":"Feature","geometry":{"type":"LineString","coordinates":[[150.985176,-33.921617],[150.994492,-33.926836]]},"properties":{"id":"WSI"}},{"type":"Feature","geometry":{"type":"Point","coordinates":[151.027679,-33.854879]},"properties":{"icon":"AUDIT","":"","name":"EDGAR"}},{"type":"Feature","geometry":{"type":"Point","coordinates":[151.167524,-33.915308]},"properties":{"id":"WAYPOINT","name":"SDM NDB"}},{"type":"Feature","geometry":{"type":"Point","coordinates":[151.167524,-33.915308]},"properties":{"id":"WAYPOINT","name":"SDM NDB"}},{"type":"Feature","geometry":{"type":"LineString","coordinates":[[151.171783,-33.930106],[151.180648,-33.964265]]},"properties":{"id":"16R_34L"}},{"type":"Feature","geometry":{"type":"LineString","coordinates":[[151.188854,-33.951645],[151.193813,-33.970751]]},"properties":{"id":"16L_34R"}},{"type":"Feature","geometry":{"type":"LineString","coordinates":[[151.163627,-33.943735],[151.188903,-33.937783]]},"properties":{"id":"07_25"}},{"type":"Feature","geometry":{"type":"Point","coordinates":[151.171783,-33.930106]},"properties":{"id":"16R"}},{"type":"Feature","geometry":{"type":"Point","coordinates":[151.188854,-33.951644]},"properties":{"id":"16L"}},{"type":"Feature","geometry":{"type":"LineString","coordinates":[[151.171783,-33.930106],[151.180648,-33.964265]]},"properties":{"id":"16R_34L"}},{"type":"Feature","geometry":{"type":"LineString","coordinates":[[151.188854,-33.951645],[151.193813,-33.970751]]},"properties":{"id":"16L_34R"}},{"type":"Feature","geometry":{"type":"LineString","coordinates":[[151.163627,-33.943735],[151.188903,-33.937783]]},"properties":{"id":"07_25"}},{"type":"Feature","geometry":{"type":"Point","coordinates":[151.171783,-33.930106]},"properties":{"id":"16R"}},{"type":"Feature","geometry":{"type":"Point","coordinates":[151.188854,-33.951644]},"properties":{"id":"16L"}},{"type":"Feature","geometry":{"type":"Point","coordinates":[151.027679,-33.854879]},"properties":{"Name":"Value"}},{"type":"Feature","geometry":{"type":"Point","coordinates":[151.181903,-33.873666]},"properties":{"icon":"AUDIT","":"","name":"GPR268"}},{"type":"Feature","properties":{"id":"WSI"},"geometry":{"type":"LineString","coordinates":[[150.986648,-33.920124],[150.996544,-33.925666]]}},{"type":"Feature","properties":{},"geometry":{"type":"LineString","coordinates":[[150.730263,-33.875045],[150.695741,-33.891854]]}},{"type":"Feature","properties":{"id":"WAYPOINT","name":"16R_LINE"},"geometry":{"type":"Point","coordinates":[151.170609,-33.878092]}},{"type":"Feature","properties":{"name":"CENTREPOINT"},"geometry":{"type":"Point","coordinates":[151.208945,-33.870388]}}]}